CCSDS_OMM_VERS = 2.0
CREATION_DATE  = 
ORIGINATOR     = 

OBJECT_NAME    = UNKNOWN
OBJECT_ID      = 
CENTER_NAME    = EARTH
REF_FRAME      = TEME
TIME_SYSTEM    = UTC
MEAN_ELEMENT_THEORY = SGP/SGP4

EPOCH          = 2026-03-19T06:24:33.604704
MEAN_MOTION    = 14.47315873
ECCENTRICITY   = .005166
INCLINATION    = 99.0867
RA_OF_ASC_NODE = 90.0704
ARG_OF_PERICENTER = 230.9622
MEAN_ANOMALY   = 143.9650

EPHEMERIS_TYPE = 0
CLASSIFICATION_TYPE = U
NORAD_CAT_ID   = 87211
ELEMENT_SET_NO = 999
REV_AT_EPOCH   = 72173
BSTAR          = .65631E-3
MEAN_MOTION_DOT = .2391E-4
MEAN_MOTION_DDOT = 0

CCSDS_OMM_VERS = 2.0
CREATION_DATE  = 
ORIGINATOR     = 

OBJECT_NAME    = UNKNOWN
OBJECT_ID      = 
CENTER_NAME    = EARTH
REF_FRAME      = TEME
TIME_SYSTEM    = UTC
MEAN_ELEMENT_THEORY = SGP/SGP4

EPOCH          = 2026-03-19T23:17:30.850080
MEAN_MOTION    = 13.84320085
ECCENTRICITY   = .0067638
INCLINATION    = 100.3274
RA_OF_ASC_NODE = 92.2045
ARG_OF_PERICENTER = 4.7415
MEAN_ANOMALY   = 355.4362

EPHEMERIS_TYPE = 0
CLASSIFICATION_TYPE = U
NORAD_CAT_ID   = 87214
ELEMENT_SET_NO = 999
REV_AT_EPOCH   = 61369
BSTAR          = .15225E-2
MEAN_MOTION_DOT = .168E-4
MEAN_MOTION_DDOT = 0

CCSDS_OMM_VERS = 2.0
CREATION_DATE  = 
ORIGINATOR     = 

OBJECT_NAME    = UNKNOWN
OBJECT_ID      = 
CENTER_NAME    = EARTH
REF_FRAME      = TEME
TIME_SYSTEM    = UTC
MEAN_ELEMENT_THEORY = SGP/SGP4

EPOCH          = 2026-03-19T10:22:41.253024
MEAN_MOTION    = 13.91849296
ECCENTRICITY   = .0103105
INCLINATION    = 99.2394
RA_OF_ASC_NODE = 138.6446
ARG_OF_PERICENTER = 23.4741
MEAN_ANOMALY   = 352.6088

EPHEMERIS_TYPE = 0
CLASSIFICATION_TYPE = U
NORAD_CAT_ID   = 87237
ELEMENT_SET_NO = 999
REV_AT_EPOCH   = 62521
BSTAR          = .25736E-3
MEAN_MOTION_DOT = .298E-5
MEAN_MOTION_DDOT = 0

CCSDS_OMM_VERS = 2.0
CREATION_DATE  = 
ORIGINATOR     = 

OBJECT_NAME    = UNKNOWN
OBJECT_ID      = 
CENTER_NAME    = EARTH
REF_FRAME      = TEME
TIME_SYSTEM    = UTC
MEAN_ELEMENT_THEORY = SGP/SGP4

EPOCH          = 2026-03-20T04:23:28.723776
MEAN_MOTION    = 14.54182206
ECCENTRICITY   = .0021552
INCLINATION    = 82.8764
RA_OF_ASC_NODE = 359.9636
ARG_OF_PERICENTER = 83.9209
MEAN_ANOMALY   = 276.4446

EPHEMERIS_TYPE = 0
CLASSIFICATION_TYPE = U
NORAD_CAT_ID   = 87239
ELEMENT_SET_NO = 999
REV_AT_EPOCH   = 64202
BSTAR          = .13412E-2
MEAN_MOTION_DOT = .5711E-4
MEAN_MOTION_DDOT = 0

CCSDS_OMM_VERS = 2.0
CREATION_DATE  = 
ORIGINATOR     = 

OBJECT_NAME    = UNKNOWN
OBJECT_ID      = 
CENTER_NAME    = EARTH
REF_FRAME      = TEME
TIME_SYSTEM    = UTC
MEAN_ELEMENT_THEORY = SGP/SGP4

EPOCH          = 2026-03-20T14:09:01.328544
MEAN_MOTION    = 14.16818483
ECCENTRICITY   = .0424902
INCLINATION    = 65.6395
RA_OF_ASC_NODE = 145.9097
ARG_OF_PERICENTER = 72.0381
MEAN_ANOMALY   = 0.6526

EPHEMERIS_TYPE = 0
CLASSIFICATION_TYPE = U
NORAD_CAT_ID   = 87245
ELEMENT_SET_NO = 999
REV_AT_EPOCH   = 62806
BSTAR          = .71262E-3
MEAN_MOTION_DOT = .3383E-4
MEAN_MOTION_DDOT = 0

CCSDS_OMM_VERS = 2.0
CREATION_DATE  = 
ORIGINATOR     = 

OBJECT_NAME    = UNKNOWN
OBJECT_ID      = 
CENTER_NAME    = EARTH
REF_FRAME      = TEME
TIME_SYSTEM    = UTC
MEAN_ELEMENT_THEORY = SGP/SGP4

EPOCH          = 2026-03-20T17:02:18.500640
MEAN_MOTION    = 14.23379983
ECCENTRICITY   = .0420211
INCLINATION    = 65.7562
RA_OF_ASC_NODE = 332.6518
ARG_OF_PERICENTER = 21.8718
MEAN_ANOMALY   = 339.9728

EPHEMERIS_TYPE = 0
CLASSIFICATION_TYPE = U
NORAD_CAT_ID   = 87271
ELEMENT_SET_NO = 999
REV_AT_EPOCH   = 62630
BSTAR          = .15444E-2
MEAN_MOTION_DOT = .8734E-4
MEAN_MOTION_DDOT = 0

CCSDS_OMM_VERS = 2.0
CREATION_DATE  = 
ORIGINATOR     = 

OBJECT_NAME    = UNKNOWN
OBJECT_ID      = 
CENTER_NAME    = EARTH
REF_FRAME      = TEME
TIME_SYSTEM    = UTC
MEAN_ELEMENT_THEORY = SGP/SGP4

EPOCH          = 2026-03-20T11:39:09.644256
MEAN_MOTION    = 13.48655109
ECCENTRICITY   = .012649
INCLINATION    = 64.6179
RA_OF_ASC_NODE = 353.6030
ARG_OF_PERICENTER = 241.9870
MEAN_ANOMALY   = 116.8326

EPHEMERIS_TYPE = 0
CLASSIFICATION_TYPE = U
NORAD_CAT_ID   = 87280
ELEMENT_SET_NO = 999
REV_AT_EPOCH   = 54703
BSTAR          = .6451E-3
MEAN_MOTION_DOT = .339E-5
MEAN_MOTION_DDOT = 0

CCSDS_OMM_VERS = 2.0
CREATION_DATE  = 
ORIGINATOR     = 

OBJECT_NAME    = UNKNOWN
OBJECT_ID      = 
CENTER_NAME    = EARTH
REF_FRAME      = TEME
TIME_SYSTEM    = UTC
MEAN_ELEMENT_THEORY = SGP/SGP4

EPOCH          = 2026-03-20T10:19:22.634112
MEAN_MOTION    = 14.19750912
ECCENTRICITY   = .042787
INCLINATION    = 65.8949
RA_OF_ASC_NODE = 245.2244
ARG_OF_PERICENTER = 307.0728
MEAN_ANOMALY   = 49.1945

EPHEMERIS_TYPE = 0
CLASSIFICATION_TYPE = U
NORAD_CAT_ID   = 87293
ELEMENT_SET_NO = 999
REV_AT_EPOCH   = 62785
BSTAR          = .55601E-3
MEAN_MOTION_DOT = .2865E-4
MEAN_MOTION_DDOT = 0

CCSDS_OMM_VERS = 2.0
CREATION_DATE  = 
ORIGINATOR     = 

OBJECT_NAME    = UNKNOWN
OBJECT_ID      = 
CENTER_NAME    = EARTH
REF_FRAME      = TEME
TIME_SYSTEM    = UTC
MEAN_ELEMENT_THEORY = SGP/SGP4

EPOCH          = 2026-03-14T10:29:25.341504
MEAN_MOTION    = 13.99814165
ECCENTRICITY   = .0026085
INCLINATION    = 100.1009
RA_OF_ASC_NODE = 70.1924
ARG_OF_PERICENTER = 49.6145
MEAN_ANOMALY   = 310.7287

EPHEMERIS_TYPE = 0
CLASSIFICATION_TYPE = U
NORAD_CAT_ID   = 87300
ELEMENT_SET_NO = 999
REV_AT_EPOCH   = 62594
BSTAR          = .10112E-2
MEAN_MOTION_DOT = .1435E-4
MEAN_MOTION_DDOT = 0

CCSDS_OMM_VERS = 2.0
CREATION_DATE  = 
ORIGINATOR     = 

OBJECT_NAME    = UNKNOWN
OBJECT_ID      = 
CENTER_NAME    = EARTH
REF_FRAME      = TEME
TIME_SYSTEM    = UTC
MEAN_ELEMENT_THEORY = SGP/SGP4

EPOCH          = 2026-03-20T09:43:06.975840
MEAN_MOTION    = 14.75869332
ECCENTRICITY   = .0016124
INCLINATION    = 74.0169
RA_OF_ASC_NODE = 129.6963
ARG_OF_PERICENTER = 71.7700
MEAN_ANOMALY   = 288.5227

EPHEMERIS_TYPE = 0
CLASSIFICATION_TYPE = U
NORAD_CAT_ID   = 87304
ELEMENT_SET_NO = 999
REV_AT_EPOCH   = 66088
BSTAR          = .16659E-3
MEAN_MOTION_DOT = .1112E-4
MEAN_MOTION_DDOT = 0

CCSDS_OMM_VERS = 2.0
CREATION_DATE  = 
ORIGINATOR     = 

OBJECT_NAME    = UNKNOWN
OBJECT_ID      = 
CENTER_NAME    = EARTH
REF_FRAME      = TEME
TIME_SYSTEM    = UTC
MEAN_ELEMENT_THEORY = SGP/SGP4

EPOCH          = 2026-03-20T14:40:08.969952
MEAN_MOTION    = 13.70485357
ECCENTRICITY   = .0422025
INCLINATION    = 66.5917
RA_OF_ASC_NODE = 210.7266
ARG_OF_PERICENTER = 352.0471
MEAN_ANOMALY   = 7.4038

EPHEMERIS_TYPE = 0
CLASSIFICATION_TYPE = U
NORAD_CAT_ID   = 87320
ELEMENT_SET_NO = 999
REV_AT_EPOCH   = 60715
BSTAR          = .50762E-3
MEAN_MOTION_DOT = .77E-5
MEAN_MOTION_DDOT = 0

CCSDS_OMM_VERS = 2.0
CREATION_DATE  = 
ORIGINATOR     = 

OBJECT_NAME    = UNKNOWN
OBJECT_ID      = 
CENTER_NAME    = EARTH
REF_FRAME      = TEME
TIME_SYSTEM    = UTC
MEAN_ELEMENT_THEORY = SGP/SGP4

EPOCH          = 2026-03-20T12:05:31.178976
MEAN_MOTION    = 14.10778416
ECCENTRICITY   = .0065221
INCLINATION    = 90.0048
RA_OF_ASC_NODE = 271.7125
ARG_OF_PERICENTER = 290.6227
MEAN_ANOMALY   = 68.7971

EPHEMERIS_TYPE = 0
CLASSIFICATION_TYPE = U
NORAD_CAT_ID   = 87334
ELEMENT_SET_NO = 999
REV_AT_EPOCH   = 40041
BSTAR          = .82074E-2
MEAN_MOTION_DOT = .15006E-3
MEAN_MOTION_DDOT = 0

