UNKNOWN                 
1 87211U          26078.26705561  .00002391  00000+0  65631-3 0  9992
2 87211  99.0867  90.0704 0051660 230.9622 143.9650 14.47315873721733
UNKNOWN                 
1 87214U          26078.97049595  .00001680  00000+0  15225-2 0  9994
2 87214 100.3274  92.2045 0067638   4.7415 355.4362 13.84320085613691
UNKNOWN                 
1 87237U          26078.43242191  .00000298  00000+0  25736-3 0  9990
2 87237  99.2394 138.6446 0103105  23.4741 352.6088 13.91849296625218
UNKNOWN                 
1 87239U          26079.18297134  .00005711  00000+0  13412-2 0  9994
2 87239  82.8764 359.9636 0021552  83.9209 276.4446 14.54182206642023
UNKNOWN                 
1 87245U          26079.58959871  .00003383  00000+0  71262-3 0  9999
2 87245  65.6395 145.9097 0424902  72.0381   0.6526 14.16818483628064
UNKNOWN                 
1 87271U          26079.70993635  .00008734  00000+0  15444-2 0  9992
2 87271  65.7562 332.6518 0420211  21.8718 339.9728 14.23379983626300
UNKNOWN                 
1 87280U          26079.48552829  .00000339  00000+0  64510-3 0  9995
2 87280  64.6179 353.6030 0126490 241.9870 116.8326 13.48655109547031
UNKNOWN                 
1 87293U          26079.43012308  .00002865  00000+0  55601-3 0  9994
2 87293  65.8949 245.2244 0427870 307.0728  49.1945 14.19750912627859
UNKNOWN                 
1 87300U          26073.43709886  .00001435  00000+0  10112-2 0  9990
2 87300 100.1009  70.1924 0026085  49.6145 310.7287 13.99814165625945
UNKNOWN                 
1 87304U          26079.40494185  .00001112  00000+0  16659-3 0  9995
2 87304  74.0169 129.6963 0016124  71.7700 288.5227 14.75869332660883
UNKNOWN                 
1 87320U          26079.61121493  .00000770  00000+0  50762-3 0  9997
2 87320  66.5917 210.7266 0422025 352.0471   7.4038 13.70485357607151
UNKNOWN                 
1 87334U          26079.50383309  .00015006  00000+0  82074-2 0  9994
2 87334  90.0048 271.7125 0065221 290.6227  68.7971 14.10778416400413
